ONEWEB-0045             
1 45151U 20008W   25106.96988057  .00000254  00000+0  68024-3 0  9995
2 45151  87.8796 105.9954 0001946  84.7347 275.4003 13.11420587254542
ONEWEB-0047             
1 45152U 20008X   25106.76884087 -.00000399  00000+0 -11788-2 0  9998
2 45152  87.8797 121.2866 0002084  90.0614 270.0753 13.10375095252350
ONEWEB-0048             
1 45153U 20008Y   25106.76385315 -.00000538  00000+0 -15762-2 0  9990
2 45153  87.8801 121.3098 0002070  92.1184 268.0180 13.10374310251961
ONEWEB-0049             
1 45154U 20008Z   25106.76636433 -.00000516  00000+0 -15147-2 0  9994
2 45154  87.8804 121.3003 0002352 102.2513 257.8878 13.10376366252181
ONEWEB-0051             
1 45155U 20008AA  25106.96818233  .00000211  00000+0  55858-3 0  9991
2 45155  87.8794 106.0391 0001883  90.3150 269.8194 13.11421124255228
ONEWEB-0052             
1 45156U 20008AB  25106.76135164 -.00000599  00000+0 -17519-2 0  9997
2 45156  87.8794 121.2489 0002489 100.4947 259.6461 13.10372609252094
ONEWEB-0053             
1 45157U 20008AC  25106.74393975 -.00000237  00000+0 -71650-3 0  9998
2 45157  87.8794 121.3123 0002170  82.6345 277.5028 13.10370077252063
ONEWEB-0054             
1 45158U 20008AD  25106.77880669  .00000221  00000+0  59709-3 0  9995
2 45158  87.8797 121.2816 0001989  93.3174 266.8180 13.10376522252185
